{"type":"FeatureCollection","features":[{"type":"Feature","properties":{"district":"Baksa","dtCode":"324"},"geometry":{"type":"Polygon","coordinates":[[[91.7042,26.8127],[91.7454,26.6879],[91.7345,26.6605],[91.7487,26.6467],[91.7391,26.6382],[91.7504,26.6363],[91.7331,26.6302],[91.7464,26.6269],[91.7378,26.6049],[91.7517,26.6049],[91.7434,26.5931],[91.7504,26.5868],[91.7627,26.5937],[91.7497,26.581],[91.7667,26.5733],[91.7803,26.5494],[91.7853,26.5357],[91.7757,26.5288],[91.7843,26.5274],[91.7757,26.5228],[91.7853,26.5189],[91.778,26.5126],[91.7873,26.498],[91.7813,26.4961],[91.8016,26.4898],[91.7999,26.4772],[91.7793,26.4791],[91.78,26.4818],[91.7524,26.4816],[91.7544,26.4945],[91.7248,26.503],[91.7202,26.4769],[91.7099,26.4788],[91.6766,26.4483],[91.6251,26.4472],[91.6291,26.4648],[91.6181,26.4686],[91.6264,26.4708],[91.6281,26.4807],[91.6205,26.4796],[91.6284,26.4934],[91.6161,26.4857],[91.6195,26.5129],[91.5896,26.5145],[91.5862,26.5283],[91.5779,26.5291],[91.5739,26.5555],[91.5849,26.5558],[91.5776,26.572],[91.5284,26.5588],[91.5065,26.5324],[91.4945,26.5338],[91.4912,26.5612],[91.4759,26.5709],[91.4676,26.5626],[91.4344,26.5634],[91.429,26.5494],[91.46,26.5426],[91.3526,26.5239],[91.3553,26.5107],[91.3413,26.4997],[91.2968,26.4849],[91.3024,26.5],[91.2841,26.5027],[91.2895,26.5154],[91.3114,26.517],[91.2968,26.5461],[91.2662,26.5349],[91.2639,26.5217],[91.2439,26.5239],[91.2479,26.5384],[91.2901,26.5643],[91.2586,26.5706],[91.2692,26.5843],[91.2376,26.5772],[91.2333,26.6074],[91.2476,26.6077],[91.2486,26.6195],[91.1977,26.6231],[91.1984,26.6038],[91.1845,26.6044],[91.1868,26.622],[91.1765,26.6228],[91.1864,26.6278],[91.1512,26.639],[91.1575,26.6514],[91.1456,26.6627],[91.1396,26.6506],[91.1276,26.65],[91.1273,26.6588],[91.0974,26.6654],[91.0954,26.6522],[91.1127,26.6514],[91.1127,26.6376],[91.0951,26.6393],[91.0977,26.6289],[91.1163,26.6321],[91.123,26.6118],[91.1406,26.6115],[91.1422,26.6008],[91.1263,26.6047],[91.1133,26.5841],[91.1216,26.5827],[91.1183,26.5728],[91.1047,26.5676],[91.11,26.5612],[91.0808,26.5563],[91.0718,26.5162],[91.0592,26.5162],[91.0522,26.5294],[90.991,26.5239],[90.9967,26.47],[91.0143,26.4458],[91.01,26.4351],[90.997,26.4354],[91.0037,26.4219],[90.9817,26.4164],[90.9824,26.431],[90.9698,26.4288],[90.9754,26.4403],[90.9611,26.4445],[90.9621,26.4579],[90.9731,26.4612],[90.9522,26.4571],[90.9455,26.4618],[90.9531,26.4711],[90.9329,26.4777],[90.9771,26.4997],[90.9767,26.5398],[90.9854,26.5755],[90.996,26.5714],[90.995,26.6008],[90.989,26.5907],[90.9635,26.5986],[90.9635,26.5832],[90.9349,26.5841],[90.9319,26.5549],[90.9212,26.5596],[90.9259,26.5755],[90.9093,26.5739],[90.8913,26.5522],[90.8777,26.5574],[90.8694,26.5775],[90.9006,26.5992],[90.899,26.6888],[90.9438,26.7756],[90.9917,26.7907],[91.0542,26.7808],[91.0977,26.822],[91.1462,26.8111],[91.2366,26.8119],[91.3373,26.7805],[91.3762,26.7954],[91.4081,26.8399],[91.4952,26.7913],[91.5929,26.8053],[91.6258,26.8209],[91.6903,26.8069],[91.7042,26.8127]]]}},{"type":"Feature","properties":{"district":"Barpeta","dtCode":"303"},"geometry":{"type":"Polygon","coordinates":[[[90.8478,26.528],[90.8538,26.5291],[90.8318,26.5393],[90.8232,26.561],[90.8574,26.5673],[90.8671,26.5629],[90.8754,26.5632],[90.8777,26.5574],[90.8913,26.5522],[90.9093,26.5739],[90.9259,26.5755],[90.9212,26.5596],[90.9319,26.5549],[90.9349,26.5841],[90.9635,26.5832],[90.9635,26.5986],[90.989,26.5907],[90.995,26.6008],[90.996,26.5714],[90.9854,26.5755],[90.9767,26.5398],[90.9771,26.4997],[90.9329,26.4777],[90.9531,26.4711],[90.9455,26.4618],[90.9522,26.4571],[90.9731,26.4612],[90.9621,26.4579],[90.9611,26.4445],[90.9754,26.4403],[90.9698,26.4288],[90.9824,26.431],[90.9817,26.4164],[91.0037,26.4219],[90.997,26.4354],[91.01,26.4351],[91.0143,26.4458],[90.9967,26.47],[90.991,26.5239],[91.0522,26.5294],[91.0592,26.5162],[91.0718,26.5162],[91.0808,26.5563],[91.11,26.5612],[91.1047,26.5676],[91.1183,26.5728],[91.1216,26.5827],[91.1133,26.5841],[91.1263,26.6047],[91.1422,26.6008],[91.1406,26.6115],[91.123,26.6118],[91.1163,26.6321],[91.0977,26.6289],[91.0951,26.6393],[91.1127,26.6376],[91.1127,26.6514],[91.0954,26.6522],[91.0974,26.6654],[91.1273,26.6588],[91.1276,26.65],[91.1396,26.6506],[91.1456,26.6627],[91.1575,26.6514],[91.1512,26.639],[91.1864,26.6278],[91.1765,26.6228],[91.1868,26.622],[91.1845,26.6044],[91.1984,26.6038],[91.1977,26.6231],[91.2486,26.6195],[91.2476,26.6077],[91.2333,26.6074],[91.2376,26.5772],[91.2692,26.5843],[91.2586,26.5706],[91.2901,26.5643],[91.2479,26.5384],[91.2439,26.5239],[91.2496,26.5233],[91.2479,26.5107],[91.2659,26.4912],[91.2313,26.4384],[91.2419,26.4043],[91.2336,26.3997],[91.2419,26.3881],[91.237,26.378],[91.2443,26.381],[91.2473,26.3716],[91.2652,26.3609],[91.2649,26.3708],[91.2825,26.3752],[91.2709,26.3645],[91.2772,26.3409],[91.2672,26.3406],[91.2699,26.329],[91.2559,26.3147],[91.2616,26.3043],[91.2503,26.3018],[91.2612,26.2895],[91.227,26.2826],[91.216,26.2672],[91.2409,26.2612],[91.2157,26.2389],[91.2167,26.2194],[91.2483,26.2012],[91.2373,26.1804],[91.2127,26.1801],[91.117,26.1548],[91.1007,26.1652],[91.0811,26.1617],[91.0296,26.1191],[90.998,26.1287],[91.0093,26.1155],[90.9954,26.1196],[90.9435,26.0946],[90.9349,26.1009],[90.9169,26.0897],[90.8714,26.0957],[90.8594,26.1125],[90.8395,26.1092],[90.782,26.1292],[90.7145,26.1301],[90.6939,26.151],[90.6534,26.2372],[90.684,26.2579],[90.7331,26.2579],[90.7312,26.2683],[90.7202,26.2686],[90.7205,26.2826],[90.7514,26.3095],[90.8026,26.307],[90.7893,26.3293],[90.8179,26.367],[90.8408,26.3576],[90.8598,26.3628],[90.8611,26.3774],[90.8448,26.4019],[90.8618,26.431],[90.8558,26.439],[90.8129,26.4282],[90.797,26.4357],[90.8275,26.4489],[90.8186,26.4758],[90.8039,26.478],[90.8049,26.4967],[90.8229,26.4906],[90.8272,26.5022],[90.8422,26.4997],[90.8501,26.5198],[90.8478,26.528]]]}},{"type":"Feature","properties":{"district":"Biswanath","dtCode":"756"},"geometry":{"type":"Polygon","coordinates":[[[93.6975,26.9943],[93.7441,26.9581],[93.749,26.9138],[93.7394,26.8984],[93.7806,26.8858],[93.7893,26.8591],[93.77,26.8449],[93.751,26.8036],[93.7125,26.816],[93.6892,26.7976],[93.6703,26.8009],[93.6487,26.788],[93.6493,26.7575],[93.6706,26.7121],[93.651,26.7061],[93.5749,26.7193],[93.5377,26.7506],[93.5041,26.7569],[93.3964,26.7506],[93.3526,26.7363],[93.331,26.7088],[93.3041,26.7003],[93.3057,26.6984],[93.2971,26.6948],[93.2416,26.6838],[93.22,26.6311],[93.1442,26.5945],[93.1233,26.6596],[93.1037,26.6954],[93.084,26.7017],[93.0874,26.7124],[93.0681,26.7467],[93.0744,26.7682],[93.0578,26.8031],[93.0641,26.8223],[93.0432,26.8509],[93.0611,26.8723],[93.0618,26.9221],[93.088,26.9144],[93.1073,26.9259],[93.2868,26.9542],[93.3984,26.9572],[93.4486,26.9509],[93.4705,26.9366],[93.665,26.9685],[93.6975,26.9943]]]}},{"type":"Feature","properties":{"district":"Bongaigaon","dtCode":"319"},"geometry":{"type":"Polygon","coordinates":[[[90.3992,26.4417],[90.4291,26.4489],[90.4374,26.4609],[90.46,26.453],[90.4633,26.4648],[90.4773,26.4626],[90.4563,26.4326],[90.4766,26.3856],[90.4809,26.4205],[90.5042,26.4263],[90.5098,26.4489],[90.4982,26.4596],[90.5198,26.5093],[90.5899,26.4898],[90.6019,26.4914],[90.5889,26.5115],[90.6012,26.5165],[90.6235,26.5077],[90.6208,26.4936],[90.6823,26.4991],[90.6856,26.4818],[90.7172,26.4794],[90.7102,26.4516],[90.7358,26.442],[90.7448,26.4656],[90.7312,26.4719],[90.7312,26.4829],[90.7664,26.4857],[90.7773,26.5049],[90.7574,26.5148],[90.7747,26.5305],[90.787,26.5277],[90.7876,26.5176],[90.8478,26.528],[90.8501,26.5198],[90.8422,26.4997],[90.8272,26.5022],[90.8229,26.4906],[90.8049,26.4967],[90.8039,26.478],[90.8186,26.4758],[90.8275,26.4489],[90.797,26.4357],[90.8129,26.4282],[90.8558,26.439],[90.8618,26.431],[90.8448,26.4019],[90.8611,26.3774],[90.8598,26.3628],[90.8408,26.3576],[90.8179,26.367],[90.7893,26.3293],[90.8026,26.307],[90.7514,26.3095],[90.7205,26.2826],[90.7202,26.2686],[90.7312,26.2683],[90.7331,26.2579],[90.684,26.2579],[90.6534,26.2372],[90.67,26.2021],[90.656,26.2111],[90.6225,26.2021],[90.6182,26.2092],[90.6002,26.2153],[90.5773,26.2034],[90.5211,26.1996],[90.4693,26.1683],[90.4699,26.1782],[90.4447,26.1658],[90.443,26.1787],[90.4483,26.1839],[90.3912,26.1914],[90.3902,26.2034],[90.4105,26.212],[90.442,26.2364],[90.4321,26.2609],[90.4503,26.2507],[90.445,26.2675],[90.4733,26.2708],[90.4586,26.2721],[90.4553,26.2853],[90.466,26.2763],[90.464,26.2897],[90.4836,26.2961],[90.466,26.3252],[90.4743,26.3326],[90.4623,26.3282],[90.454,26.3409],[90.457,26.3573],[90.4453,26.3461],[90.444,26.3604],[90.4364,26.3593],[90.435,26.3444],[90.4251,26.3631],[90.4374,26.3648],[90.4264,26.3675],[90.4337,26.3766],[90.4311,26.3771],[90.4327,26.381],[90.4237,26.3821],[90.4281,26.3859],[90.4257,26.3961],[90.4164,26.3906],[90.4171,26.4076],[90.4035,26.4068],[90.4154,26.4307],[90.4025,26.4335],[90.3992,26.4417]]]}},{"type":"Feature","properties":{"district":"Cachar","dtCode":"316"},"geometry":{"type":"Polygon","coordinates":[[[92.5394,25.0993],[92.5985,25.1108],[92.6195,25.1023],[92.643,25.1177],[92.665,25.1092],[92.7225,25.1127],[92.7348,25.1259],[92.7305,25.143],[92.753,25.1383],[92.778,25.0883],[92.8125,25.0814],[92.8358,25.0525],[92.8976,25.0792],[92.9518,25.069],[92.9591,25.0902],[92.9774,25.0855],[93.0369,25.1045],[93.0472,25.0993],[93.0432,25.0885],[93.0143,25.0619],[93.0531,25.0308],[93.0618,25.0023],[93.1798,25.0006],[93.203,24.9816],[93.2273,24.9871],[93.2449,24.9704],[93.2459,24.9726],[93.2622,24.9687],[93.2452,24.9509],[93.2512,24.9407],[93.2366,24.9374],[93.2489,24.9149],[93.2353,24.9116],[93.2406,24.9033],[93.226,24.8921],[93.2326,24.8846],[93.2213,24.8816],[93.2263,24.8728],[93.204,24.8511],[93.1947,24.8539],[93.2014,24.842],[93.1954,24.842],[93.2004,24.8382],[93.1957,24.836],[93.1967,24.8115],[93.1911,24.8041],[93.1495,24.7874],[93.1386,24.8102],[93.1186,24.8077],[93.1213,24.819],[93.1093,24.8115],[93.0987,24.7538],[93.1076,24.7415],[93.0864,24.7096],[93.0734,24.7079],[93.09,24.6772],[93.104,24.6741],[93.0953,24.653],[93.0831,24.6499],[93.087,24.6299],[93.0757,24.6247],[93.084,24.6137],[93.0714,24.6005],[93.1043,24.5826],[93.0844,24.5714],[93.0588,24.5738],[93.0708,24.559],[93.0498,24.5444],[93.0502,24.5194],[93.0325,24.4955],[93.0468,24.4683],[93.0329,24.4296],[93.0432,24.4183],[93.0352,24.4098],[93.0182,24.4078],[93.0089,24.4125],[92.9973,24.3996],[92.9744,24.4087],[92.9601,24.3919],[92.9511,24.4032],[92.9312,24.393],[92.9089,24.4117],[92.9029,24.3911],[92.8883,24.3966],[92.8837,24.4026],[92.8607,24.3985],[92.8428,24.3776],[92.8262,24.3765],[92.8298,24.4004],[92.7992,24.4191],[92.7574,24.5222],[92.7796,24.5683],[92.7643,24.567],[92.7354,24.5903],[92.7172,24.5617],[92.668,24.5911],[92.6663,24.6098],[92.6966,24.6153],[92.6653,24.6277],[92.665,24.6736],[92.6504,24.6846],[92.6557,24.7536],[92.6836,24.8146],[92.646,24.8151],[92.6294,24.855],[92.6464,24.8528],[92.6125,24.8607],[92.5972,24.8791],[92.5799,24.8753],[92.5802,24.8725],[92.5563,24.8775],[92.5261,24.861],[92.5151,24.8794],[92.4905,24.8742],[92.4968,24.9022],[92.4839,24.9286],[92.4872,24.947],[92.4493,24.9388],[92.4672,24.9641],[92.4184,24.9665],[92.425,25.0297],[92.4423,25.0454],[92.4643,25.0374],[92.4569,25.0542],[92.4719,25.0674],[92.4809,25.1086],[92.5394,25.0993]]]}},{"type":"Feature","properties":{"district":"Charaideo","dtCode":"755"},"geometry":{"type":"Polygon","coordinates":[[[94.8354,27.0922],[94.8916,27.1623],[94.9687,27.2244],[94.9843,27.1686],[94.9783,27.148],[95.0488,27.1554],[95.0651,27.1356],[95.1126,27.1364],[95.1153,27.1271],[95.1162,27.1362],[95.1239,27.1301],[95.1359,27.1386],[95.1531,27.1241],[95.1541,27.1362],[95.1621,27.1279],[95.1704,27.1449],[95.1801,27.1419],[95.1834,27.1631],[95.195,27.1551],[95.213,27.1658],[95.211,27.1741],[95.2199,27.165],[95.2375,27.1697],[95.2369,27.1897],[95.2545,27.193],[95.2578,27.184],[95.2841,27.1974],[95.314,27.1837],[95.3279,27.1862],[95.3372,27.1837],[95.3562,27.1683],[95.3685,27.1098],[95.2917,27.0666],[95.2588,27.0303],[95.2462,27.024],[95.2319,27.0427],[95.2106,27.0287],[95.1933,27.0358],[95.1119,26.9809],[95.1016,26.9619],[95.0165,26.9212],[94.9827,26.913],[94.9611,26.9372],[94.9308,26.9328],[94.9242,26.9485],[94.9418,26.9594],[94.9391,26.9872],[94.9265,26.9932],[94.9006,26.9836],[94.9099,26.9696],[94.8481,26.9292],[94.7567,26.9226],[94.7337,26.9325],[94.7872,26.9968],[94.8095,26.9916],[94.8059,26.9976],[94.8298,27.0163],[94.8248,27.057],[94.8354,27.0922]]]}},{"type":"Feature","properties":{"district":"Chirang","dtCode":"320"},"geometry":{"type":"Polygon","coordinates":[[[90.8754,26.5632],[90.8671,26.5629],[90.8574,26.5673],[90.8232,26.561],[90.8318,26.5393],[90.8538,26.5291],[90.7876,26.5176],[90.787,26.5277],[90.7747,26.5305],[90.7574,26.5148],[90.7773,26.5049],[90.7664,26.4857],[90.7312,26.4829],[90.7312,26.4719],[90.7448,26.4656],[90.7358,26.442],[90.7102,26.4516],[90.7172,26.4794],[90.6856,26.4818],[90.6823,26.4991],[90.6208,26.4936],[90.6235,26.5077],[90.6012,26.5165],[90.5889,26.5115],[90.6019,26.4914],[90.5899,26.4898],[90.5198,26.5093],[90.4982,26.4596],[90.5098,26.4489],[90.5042,26.4263],[90.4809,26.4205],[90.4766,26.3856],[90.4563,26.4326],[90.4773,26.4626],[90.4633,26.4648],[90.46,26.453],[90.4374,26.4609],[90.4291,26.4489],[90.3992,26.4417],[90.4051,26.4752],[90.3862,26.4851],[90.3935,26.4939],[90.4091,26.4898],[90.4078,26.5033],[90.3932,26.5033],[90.4035,26.5118],[90.3822,26.5288],[90.3889,26.542],[90.3712,26.5445],[90.355,26.57],[90.3663,26.5821],[90.354,26.6099],[90.3573,26.6313],[90.347,26.6415],[90.3772,26.7176],[90.3453,26.8058],[90.336,26.8627],[90.3556,26.9009],[90.4178,26.9045],[90.5464,26.8168],[90.6341,26.794],[90.6464,26.7767],[90.6757,26.7844],[90.7172,26.7685],[90.9568,26.788],[90.9508,26.7781],[90.9438,26.7756],[90.899,26.6888],[90.9006,26.5992],[90.8694,26.5775],[90.8754,26.5632]]]}},{"type":"Feature","properties":{"district":"Darrang","dtCode":"325"},"geometry":{"type":"Polygon","coordinates":[[[92.3599,26.5832],[92.3523,26.57],[92.3662,26.5662],[92.3609,26.5588],[92.3805,26.5277],[92.3543,26.5349],[92.3317,26.5151],[92.3413,26.5016],[92.2811,26.4543],[92.2446,26.4461],[92.2187,26.4156],[92.1818,26.4244],[92.1572,26.4123],[92.0997,26.3411],[92.0841,26.3389],[92.0402,26.273],[92.0242,26.271],[92.0153,26.2831],[91.992,26.2697],[91.9781,26.2749],[91.88,26.2166],[91.771,26.1985],[91.7487,26.2092],[91.7471,26.2213],[91.7813,26.2441],[91.7903,26.268],[91.782,26.3054],[91.7933,26.3213],[91.8155,26.3134],[91.8086,26.3222],[91.8219,26.3318],[91.8222,26.3705],[91.7757,26.4271],[91.7664,26.4623],[91.771,26.4686],[91.7773,26.47],[91.7793,26.4791],[91.7999,26.4772],[91.8016,26.4898],[91.7813,26.4961],[91.7873,26.498],[91.778,26.5126],[91.8172,26.5055],[91.8332,26.5154],[91.8275,26.545],[91.8099,26.5439],[91.8129,26.5593],[91.8298,26.5582],[91.8315,26.5711],[91.8209,26.572],[91.8338,26.5832],[91.8375,26.5808],[91.8378,26.5744],[91.8498,26.5731],[91.8541,26.5384],[91.87,26.5318],[91.8843,26.5384],[91.8966,26.5695],[91.9219,26.5676],[91.9279,26.5373],[91.9651,26.5398],[91.9588,26.5516],[91.9701,26.556],[91.9904,26.5549],[92.005,26.5346],[92.0133,26.5365],[92.0036,26.5434],[92.0282,26.5423],[92.0193,26.522],[92.0346,26.5244],[92.0252,26.5088],[92.0409,26.5099],[92.0385,26.4857],[92.0505,26.4755],[92.0568,26.509],[92.0684,26.5101],[92.0684,26.545],[92.107,26.5522],[92.1087,26.5703],[92.1007,26.5794],[92.0867,26.5758],[92.0794,26.5893],[92.0625,26.5874],[92.0568,26.547],[92.0286,26.5459],[92.006,26.5596],[92.0096,26.5898],[92.0332,26.5926],[92.0256,26.6093],[92.0385,26.6091],[92.0372,26.6203],[92.0704,26.6245],[92.0728,26.647],[92.1216,26.6437],[92.1186,26.6525],[92.1808,26.6687],[92.1768,26.6514],[92.1844,26.6448],[92.202,26.6514],[92.205,26.6407],[92.1937,26.6349],[92.2203,26.6283],[92.2346,26.597],[92.227,26.594],[92.2306,26.5489],[92.2649,26.5706],[92.2526,26.5739],[92.2423,26.6033],[92.2732,26.6162],[92.2758,26.6574],[92.2898,26.6508],[92.2941,26.622],[92.3144,26.6242],[92.312,26.6071],[92.335,26.622],[92.3317,26.6063],[92.3443,26.5978],[92.3253,26.5967],[92.3273,26.5874],[92.3599,26.5832]]]}},{"type":"Feature","properties":{"district":"Dhemaji","dtCode":"308"},"geometry":{"type":"Polygon","coordinates":[[[95.515,27.8798],[95.5154,27.8594],[95.4931,27.8581],[95.4669,27.818],[95.405,27.7696],[95.3918,27.7267],[95.3466,27.7012],[95.2738,27.6891],[95.2701,27.6808],[95.2465,27.6566],[95.205,27.658],[95.189,27.6764],[95.1963,27.7045],[95.1179,27.6858],[95.093,27.6602],[95.0362,27.6685],[95.0169,27.6564],[94.9966,27.6591],[94.9557,27.614],[94.8946,27.5789],[94.7932,27.4827],[94.7713,27.4824],[94.7464,27.4376],[94.7317,27.4431],[94.7188,27.4274],[94.6932,27.4217],[94.6909,27.3934],[94.6646,27.3769],[94.6666,27.3524],[94.6387,27.3381],[94.6384,27.3214],[94.6221,27.3329],[94.6291,27.3387],[94.6204,27.3626],[94.5932,27.3585],[94.5925,27.3777],[94.5367,27.3478],[94.5131,27.3491],[94.4981,27.3299],[94.4606,27.3321],[94.4433,27.309],[94.4267,27.3379],[94.4061,27.3307],[94.3901,27.3505],[94.3396,27.3368],[94.3336,27.3277],[94.3097,27.3189],[94.299,27.3505],[94.2472,27.392],[94.2648,27.3997],[94.2904,27.3832],[94.3054,27.3969],[94.307,27.436],[94.2778,27.4665],[94.2695,27.5157],[94.2582,27.5349],[94.2585,27.5555],[94.2249,27.5742],[94.2266,27.5978],[94.21,27.6039],[94.2376,27.6327],[94.2615,27.636],[94.2671,27.6275],[94.2545,27.6143],[94.2774,27.5896],[94.2981,27.602],[94.3629,27.575],[94.432,27.6003],[94.4619,27.5555],[94.4778,27.5761],[94.4988,27.5723],[94.5446,27.6011],[94.5739,27.6039],[94.5875,27.6184],[94.633,27.6242],[94.6626,27.6454],[94.6826,27.6459],[94.6879,27.6652],[94.7088,27.6566],[94.7251,27.669],[94.7543,27.6608],[94.7936,27.6954],[94.8407,27.7006],[94.8524,27.7278],[95.1362,27.8158],[95.3087,27.8682],[95.3795,27.8394],[95.515,27.8798]]]}},{"type":"Feature","properties":{"district":"Dhubri","dtCode":"301"},"geometry":{"type":"Polygon","coordinates":[[[89.8432,26.3832],[89.8448,26.3727],[89.8757,26.3628],[89.8691,26.3496],[89.903,26.337],[89.9056,26.3263],[89.8797,26.307],[89.8847,26.2985],[89.8661,26.2579],[89.8741,26.2474],[89.8588,26.2383],[89.8698,26.2342],[89.8601,26.2199],[89.8731,26.2021],[89.8601,26.1881],[89.8754,26.1892],[89.8684,26.1499],[89.8827,26.1356],[89.9086,26.1325],[89.9159,26.1166],[89.9356,26.1169],[89.9382,26.1328],[89.9668,26.127],[89.9821,26.1367],[90.025,26.1268],[90.0638,26.1727],[90.1522,26.2089],[90.1472,26.2199],[90.1363,26.2155],[90.1203,26.2504],[90.104,26.2513],[90.0974,26.2623],[90.1034,26.2678],[90.1177,26.2587],[90.1406,26.2763],[90.1409,26.2933],[90.126,26.2831],[90.1243,26.3038],[90.1077,26.3125],[90.118,26.3169],[90.1167,26.3389],[90.1486,26.3527],[90.1878,26.3455],[90.2071,26.3631],[90.2067,26.3749],[90.227,26.384],[90.2343,26.3656],[90.2147,26.3516],[90.2277,26.3494],[90.216,26.3288],[90.2672,26.3307],[90.2646,26.3131],[90.2812,26.2922],[90.2722,26.2672],[90.2586,26.273],[90.2516,26.2645],[90.2882,26.2521],[90.2872,26.2375],[90.3064,26.2458],[90.3034,26.2576],[90.3207,26.2787],[90.344,26.2708],[90.352,26.2873],[90.3629,26.2732],[90.3536,26.27],[90.3553,26.2581],[90.3812,26.2686],[90.3792,26.3092],[90.4048,26.3208],[90.3958,26.3571],[90.3975,26.3595],[90.4247,26.3634],[90.436,26.3441],[90.4364,26.3593],[90.444,26.3604],[90.4453,26.3461],[90.457,26.3573],[90.454,26.3409],[90.4623,26.3282],[90.4743,26.3326],[90.466,26.3252],[90.4836,26.2961],[90.464,26.2897],[90.466,26.2763],[90.4553,26.2853],[90.4586,26.2721],[90.4733,26.2708],[90.445,26.2675],[90.4503,26.2507],[90.4321,26.2609],[90.442,26.2364],[90.4105,26.212],[90.3576,26.19],[90.3048,26.1927],[90.2649,26.1831],[90.2612,26.1545],[90.2479,26.1405],[90.1954,26.1273],[90.1738,26.1031],[90.1695,26.082],[90.1801,26.049],[90.1316,26.0542],[90.0824,26.0405],[90.0562,26.0006],[90.0193,26.0023],[89.9721,25.9754],[89.9452,25.9501],[89.9488,25.9251],[89.9372,25.9248],[89.9302,25.9064],[89.898,25.9003],[89.8764,25.8792],[89.8432,25.883],[89.8874,25.9451],[89.8252,25.9459],[89.8295,25.955],[89.8495,25.9492],[89.8418,25.9704],[89.8727,25.9773],[89.8362,26.0127],[89.8359,25.9822],[89.8206,25.9874],[89.8192,26.0256],[89.8086,26.0438],[89.788,26.019],[89.802,26.0405],[89.7737,26.0386],[89.789,26.049],[89.7853,26.057],[89.7986,26.0594],[89.7946,26.0889],[89.7817,26.0831],[89.7843,26.1053],[89.7568,26.1084],[89.7667,26.1292],[89.7471,26.1578],[89.7205,26.1584],[89.7288,26.1707],[89.7368,26.1721],[89.7099,26.1718],[89.6986,26.1908],[89.7132,26.1872],[89.7205,26.1952],[89.7116,26.2023],[89.7342,26.21],[89.7006,26.218],[89.7322,26.2367],[89.7169,26.2568],[89.7023,26.2592],[89.7069,26.2705],[89.7199,26.2573],[89.7385,26.27],[89.7175,26.2955],[89.7202,26.3065],[89.7269,26.2944],[89.7571,26.2889],[89.7511,26.3211],[89.7631,26.3167],[89.7827,26.3326],[89.781,26.3529],[89.8206,26.373],[89.8113,26.3604],[89.8202,26.3527],[89.8249,26.3815],[89.8432,26.3832]]]}},{"type":"Feature","properties":{"district":"Dibrugarh","dtCode":"310"},"geometry":{"type":"Polygon","coordinates":[[[95.2701,27.6808],[95.2791,27.6729],[95.3183,27.5874],[95.3004,27.5846],[95.2847,27.5676],[95.2731,27.5742],[95.2827,27.5473],[95.2655,27.544],[95.2668,27.5093],[95.2289,27.4986],[95.2199,27.4437],[95.2518,27.434],[95.2482,27.4046],[95.2954,27.4151],[95.3093,27.389],[95.3485,27.3939],[95.3628,27.3827],[95.3901,27.3909],[95.4114,27.3871],[95.4393,27.3642],[95.4539,27.375],[95.4738,27.367],[95.4659,27.3425],[95.4482,27.3354],[95.4675,27.3167],[95.4808,27.3208],[95.4459,27.2944],[95.4605,27.2705],[95.4406,27.2604],[95.4509,27.2312],[95.4669,27.2626],[95.4841,27.2414],[95.4589,27.2076],[95.4665,27.1818],[95.4532,27.1573],[95.4622,27.1499],[95.4532,27.1296],[95.4489,27.1323],[95.4396,27.126],[95.3974,27.1106],[95.3711,27.0936],[95.3562,27.1683],[95.3372,27.1837],[95.3279,27.1862],[95.314,27.1837],[95.2841,27.1974],[95.2578,27.184],[95.2545,27.193],[95.2369,27.1897],[95.2375,27.1697],[95.2199,27.165],[95.211,27.1741],[95.213,27.1658],[95.195,27.1551],[95.1834,27.1631],[95.1801,27.1419],[95.1704,27.1449],[95.1621,27.1279],[95.1541,27.1362],[95.1531,27.1241],[95.1359,27.1386],[95.1239,27.1301],[95.1162,27.1362],[95.1153,27.1271],[95.1126,27.1364],[95.0651,27.1356],[95.0488,27.1554],[94.9783,27.148],[94.9843,27.1686],[94.9687,27.2244],[94.8916,27.1623],[94.8354,27.0922],[94.8321,27.0914],[94.8085,27.0966],[94.8175,27.1144],[94.7607,27.1298],[94.7533,27.1405],[94.7786,27.1711],[94.7683,27.1848],[94.7809,27.1996],[94.766,27.2202],[94.77,27.2378],[94.7414,27.2472],[94.75,27.2681],[94.7374,27.2747],[94.7178,27.2631],[94.7208,27.2455],[94.6949,27.2719],[94.6782,27.2433],[94.642,27.2466],[94.5932,27.1455],[94.5639,27.1812],[94.5706,27.1845],[94.5746,27.1917],[94.5865,27.2672],[94.6138,27.3065],[94.6065,27.3288],[94.6261,27.3376],[94.6221,27.3329],[94.6384,27.3214],[94.6387,27.3381],[94.6666,27.3524],[94.6646,27.3769],[94.6909,27.3934],[94.6932,27.4217],[94.7188,27.4274],[94.7317,27.4431],[94.7464,27.4376],[94.7713,27.4824],[94.7932,27.4827],[94.8946,27.5789],[94.9557,27.614],[94.9966,27.6591],[95.0169,27.6564],[95.0362,27.6685],[95.093,27.6602],[95.1179,27.6858],[95.1963,27.7045],[95.189,27.6764],[95.205,27.658],[95.2465,27.6566],[95.2701,27.6808]]]}},{"type":"Feature","properties":{"district":"Dima Hasao","dtCode":"315"},"geometry":{"type":"Polygon","coordinates":[[[93.0644,25.7753],[93.0681,25.7673],[93.0987,25.7769],[93.1296,25.761],[93.1259,25.7486],[93.1462,25.7385],[93.1485,25.7341],[93.1316,25.6865],[93.1425,25.661],[93.1708,25.6618],[93.1781,25.6398],[93.1917,25.6318],[93.1794,25.6195],[93.1764,25.5928],[93.2087,25.5436],[93.2585,25.5489],[93.2702,25.5313],[93.2924,25.5445],[93.3014,25.5304],[93.3217,25.5332],[93.329,25.5431],[93.3499,25.5324],[93.3592,25.515],[93.3915,25.4823],[93.3901,25.4604],[93.4583,25.431],[93.4732,25.3853],[93.4483,25.3408],[93.4705,25.3051],[93.4273,25.2834],[93.3812,25.2397],[93.3818,25.2229],[93.3459,25.1699],[93.3453,25.1234],[93.3323,25.0935],[93.3147,25.0847],[93.2997,25.0462],[93.2642,25.0495],[93.2539,25.0207],[93.2439,25.0185],[93.2442,24.9981],[93.2599,25.0012],[93.2449,24.9704],[93.2273,24.9871],[93.203,24.9816],[93.1798,25.0006],[93.0618,25.0023],[93.0531,25.0308],[93.0143,25.0619],[93.0432,25.0885],[93.0472,25.0993],[93.0369,25.1045],[92.9774,25.0855],[92.9591,25.0902],[92.9518,25.069],[92.8976,25.0792],[92.8358,25.0525],[92.8125,25.0814],[92.778,25.0883],[92.753,25.1383],[92.7305,25.143],[92.7348,25.1259],[92.7225,25.1127],[92.665,25.1092],[92.643,25.1177],[92.6195,25.1023],[92.5985,25.1108],[92.5394,25.0993],[92.5231,25.1262],[92.5224,25.1394],[92.6214,25.1152],[92.6281,25.1383],[92.6557,25.155],[92.6633,25.1768],[92.6939,25.1792],[92.7427,25.2067],[92.776,25.1998],[92.8016,25.2155],[92.7717,25.2301],[92.7617,25.2466],[92.7776,25.2584],[92.7687,25.2683],[92.7923,25.2826],[92.7816,25.3334],[92.7497,25.3441],[92.7321,25.3691],[92.7381,25.3796],[92.7178,25.3727],[92.6733,25.4142],[92.6617,25.4065],[92.6537,25.4337],[92.6394,25.4178],[92.6254,25.4351],[92.6274,25.4222],[92.6065,25.4134],[92.5988,25.4661],[92.5802,25.4722],[92.5666,25.4634],[92.5643,25.4738],[92.5736,25.4906],[92.6427,25.5348],[92.6454,25.556],[92.659,25.5714],[92.6826,25.5766],[92.6942,25.598],[92.7338,25.5934],[92.7404,25.5958],[92.7544,25.6151],[92.7673,25.6178],[92.7584,25.6285],[92.7883,25.6582],[92.7747,25.6742],[92.8139,25.7022],[92.8208,25.7415],[92.9229,25.7723],[92.9285,25.8069],[92.9441,25.803],[92.9634,25.8179],[92.9564,25.8039],[92.9674,25.7819],[92.9807,25.7904],[92.9834,25.783],[92.981,25.8085],[93.0063,25.8264],[93.0033,25.7866],[93.0186,25.8011],[93.0598,25.7731],[93.0644,25.7753]]]}},{"type":"Feature","properties":{"district":"Goalpara","dtCode":"302"},"geometry":{"type":"Polygon","coordinates":[[[90.67,26.2021],[90.6939,26.151],[90.7145,26.1301],[90.782,26.1292],[90.8395,26.1092],[90.8594,26.1125],[90.8714,26.0957],[90.9169,26.0897],[90.9349,26.1009],[90.9435,26.0946],[90.9402,26.093],[90.9478,26.0908],[90.9814,26.0627],[91.0263,26.0468],[91.0651,26.0476],[91.0891,26.032],[91.0994,26.01],[91.0804,25.9723],[91.0475,25.9416],[91.0286,25.886],[90.9688,25.8852],[90.9664,25.9141],[90.9475,25.9481],[90.9339,25.9399],[90.9173,25.9446],[90.9169,25.9141],[90.8844,25.9503],[90.881,25.9429],[90.8441,25.9459],[90.8355,25.9366],[90.8362,25.9484],[90.8089,25.9525],[90.778,25.9086],[90.7567,25.911],[90.7604,25.922],[90.7425,25.9124],[90.7528,25.9306],[90.7468,25.9281],[90.7405,25.9394],[90.7421,25.9545],[90.7245,25.9468],[90.7172,25.955],[90.6311,25.919],[90.6218,25.8979],[90.6062,25.9168],[90.6241,25.9394],[90.5879,25.958],[90.5766,25.9369],[90.5437,25.9237],[90.549,25.9154],[90.5135,25.8965],[90.5085,25.9017],[90.5351,25.9498],[90.4759,26.0097],[90.434,25.9916],[90.4224,25.9916],[90.4055,26.0092],[90.3623,26.0089],[90.3247,25.9734],[90.2114,25.9528],[90.2027,25.9611],[90.1868,25.9443],[90.1768,25.9591],[90.1585,25.9572],[90.1512,25.9668],[90.1167,25.9594],[90.1197,25.9696],[90.129,25.9666],[90.1423,25.9825],[90.1875,26.0015],[90.1835,26.0089],[90.1974,26.0259],[90.1708,26.0441],[90.1818,26.0501],[90.1688,26.0776],[90.1738,26.1031],[90.1954,26.1273],[90.2479,26.1405],[90.2612,26.1545],[90.2649,26.1831],[90.3048,26.1927],[90.3576,26.19],[90.3902,26.204],[90.3912,26.1914],[90.4483,26.1839],[90.443,26.1787],[90.4447,26.1658],[90.4699,26.1782],[90.4693,26.1683],[90.5211,26.1996],[90.5773,26.2034],[90.6002,26.2153],[90.6182,26.2092],[90.6225,26.2021],[90.656,26.2111],[90.67,26.2021]]]}},{"type":"Feature","properties":{"district":"Golaghat","dtCode":"313"},"geometry":{"type":"Polygon","coordinates":[[[93.77,26.8449],[93.7979,26.8234],[93.8238,26.8251],[93.8354,26.8512],[93.8913,26.8649],[93.8919,26.8927],[93.9169,26.9083],[93.9205,26.9267],[93.9378,26.9303],[93.9624,26.9267],[93.9674,26.907],[93.9567,26.8921],[93.9734,26.8734],[93.9983,26.8718],[94.0083,26.8344],[93.98,26.8108],[93.9734,26.7962],[93.9877,26.7866],[93.9724,26.7792],[93.9724,26.7682],[93.9976,26.7663],[94.0046,26.7443],[94.0461,26.7385],[94.0442,26.7132],[94.0358,26.7096],[94.0488,26.6879],[94.0435,26.6811],[94.0538,26.6791],[94.0568,26.6629],[94.0824,26.6616],[94.098,26.6418],[94.0774,26.6146],[94.085,26.6071],[94.0687,26.5942],[94.0824,26.5849],[94.078,26.5744],[94.0997,26.5766],[94.0973,26.5681],[94.107,26.5698],[94.1146,26.5549],[94.1056,26.5497],[94.1163,26.5448],[94.0973,26.4843],[94.1036,26.4629],[94.1269,26.4505],[94.1149,26.4247],[94.1216,26.3851],[94.1375,26.3488],[94.1611,26.3477],[94.1635,26.351],[94.1681,26.3469],[94.1777,26.3461],[94.1448,26.3307],[94.1159,26.3299],[94.1216,26.3178],[94.105,26.32],[94.084,26.2834],[94.0747,26.2837],[94.0744,26.2645],[94.0475,26.2493],[94.0319,26.1977],[94.0009,26.1724],[93.9943,26.1485],[94.0019,26.1345],[93.989,26.1309],[93.9976,26.129],[93.9867,26.1141],[93.998,26.1097],[93.9813,26.0814],[93.9873,26.0669],[93.9624,26.0366],[93.9528,26.0031],[93.9541,25.9693],[93.9687,25.9575],[93.9787,25.9168],[93.9378,25.8965],[93.9338,25.8852],[93.9159,25.8838],[93.8816,25.8434],[93.8398,25.8566],[93.7952,25.8091],[93.7773,25.85],[93.7952,25.9056],[93.7743,25.9657],[93.7806,25.9814],[93.8042,25.98],[93.7949,25.9927],[93.8009,26.002],[93.7813,26.0078],[93.7996,26.0314],[93.7799,26.0397],[93.7949,26.0416],[93.7869,26.0542],[93.7972,26.0523],[93.7946,26.0614],[93.8052,26.0647],[93.7966,26.0713],[93.8059,26.0713],[93.8049,26.0935],[93.8142,26.0908],[93.8065,26.1026],[93.8281,26.1276],[93.8182,26.1369],[93.8311,26.1369],[93.8215,26.1724],[93.8351,26.176],[93.8291,26.1963],[93.8381,26.1944],[93.8404,26.2177],[93.8514,26.2155],[93.8647,26.2353],[93.8477,26.2414],[93.8647,26.2458],[93.8707,26.2754],[93.881,26.2735],[93.8687,26.2944],[93.885,26.3027],[93.8737,26.3098],[93.885,26.3106],[93.8853,26.3186],[93.8939,26.3156],[93.8816,26.345],[93.889,26.3461],[93.886,26.3543],[93.8943,26.3719],[93.881,26.3725],[93.884,26.392],[93.8657,26.3889],[93.8268,26.4178],[93.7939,26.3758],[93.775,26.384],[93.7992,26.4087],[93.7819,26.4164],[93.7939,26.4285],[93.7829,26.4387],[93.7946,26.4401],[93.7514,26.5184],[93.756,26.5291],[93.7318,26.5379],[93.7524,26.5849],[93.7012,26.6074],[93.6321,26.5959],[93.6168,26.5659],[93.6108,26.5775],[93.5899,26.5706],[93.5862,26.6036],[93.5533,26.6126],[93.5237,26.5937],[93.5094,26.5934],[93.4955,26.611],[93.4779,26.603],[93.4699,26.5915],[93.4915,26.5871],[93.4636,26.5692],[93.4553,26.572],[93.4646,26.586],[93.4569,26.5761],[93.4087,26.5692],[93.3974,26.5714],[93.4028,26.5802],[93.326,26.5849],[93.2974,26.5747],[93.3021,26.5805],[93.2914,26.5907],[93.2964,26.6118],[93.2871,26.6371],[93.3047,26.6368],[93.3177,26.6506],[93.3067,26.6676],[93.315,26.6866],[93.3041,26.7003],[93.331,26.7088],[93.3526,26.7363],[93.3964,26.7506],[93.5041,26.7569],[93.5377,26.7506],[93.5749,26.7193],[93.651,26.7061],[93.6706,26.7121],[93.6493,26.7575],[93.6487,26.788],[93.6703,26.8009],[93.6892,26.7976],[93.7125,26.816],[93.751,26.8036],[93.77,26.8449]]]}},{"type":"Feature","properties":{"district":"Hailakandi","dtCode":"318"},"geometry":{"type":"Polygon","coordinates":[[[92.5802,24.8725],[92.5799,24.8753],[92.5972,24.8791],[92.6125,24.8607],[92.6464,24.8528],[92.6294,24.855],[92.646,24.8151],[92.6836,24.8146],[92.6557,24.7536],[92.6504,24.6846],[92.665,24.6736],[92.6653,24.6277],[92.6966,24.6153],[92.6663,24.6098],[92.668,24.5911],[92.7172,24.5617],[92.7354,24.5903],[92.7643,24.567],[92.7796,24.5683],[92.7574,24.5222],[92.7604,24.5145],[92.6896,24.3537],[92.661,24.3482],[92.6467,24.3292],[92.6248,24.3342],[92.6125,24.2559],[92.5507,24.2471],[92.5297,24.177],[92.5158,24.1792],[92.5015,24.1605],[92.4839,24.1633],[92.4789,24.1424],[92.4649,24.1366],[92.436,24.1536],[92.4337,24.1833],[92.4191,24.1927],[92.4224,24.255],[92.4323,24.2553],[92.4636,24.3007],[92.4915,24.3691],[92.5088,24.4548],[92.5055,24.5348],[92.5171,24.5741],[92.5045,24.5895],[92.5065,24.664],[92.4935,24.6832],[92.5221,24.7296],[92.5251,24.7516],[92.545,24.7656],[92.5447,24.8077],[92.5826,24.844],[92.5862,24.8613],[92.5802,24.8725]]]}},{"type":"Feature","properties":{"district":"Hojai","dtCode":"757"},"geometry":{"type":"Polygon","coordinates":[[[92.7534,26.0548],[92.758,26.0616],[92.7511,26.0754],[92.7324,26.0713],[92.7391,26.0858],[92.7298,26.0894],[92.7411,26.1009],[92.7231,26.1009],[92.7321,26.1152],[92.7039,26.1251],[92.7059,26.1422],[92.7225,26.151],[92.7514,26.1419],[92.7617,26.157],[92.756,26.1793],[92.7783,26.187],[92.7763,26.1996],[92.9395,26.2026],[92.9561,26.1743],[92.9312,26.1512],[92.9342,26.1367],[92.9548,26.1408],[93.0359,26.1086],[93.0398,26.0875],[93.0558,26.0883],[93.0595,26.0798],[93.1083,26.0781],[93.0934,26.0331],[93.1273,26.0311],[93.1582,25.9954],[93.1585,25.9616],[93.1734,25.9525],[93.1831,25.9034],[93.2402,25.847],[93.2469,25.7868],[93.227,25.7654],[93.2266,25.7267],[93.1425,25.7184],[93.1485,25.7341],[93.1462,25.7385],[93.1259,25.7486],[93.1296,25.761],[93.0987,25.7769],[93.0681,25.7673],[93.0644,25.7753],[93.0737,25.7791],[93.0286,25.8127],[92.9824,25.8753],[92.868,25.8685],[92.8478,25.9039],[92.8541,25.9248],[92.8341,25.9135],[92.8179,25.924],[92.8012,25.9187],[92.7899,25.9383],[92.7943,25.9564],[92.8069,25.9567],[92.7943,25.9646],[92.7756,25.9484],[92.7627,25.9605],[92.7697,25.9756],[92.762,25.9841],[92.7707,25.9891],[92.7594,25.9913],[92.779,25.996],[92.757,26.0026],[92.7826,26.01],[92.759,26.0141],[92.7653,26.0287],[92.7464,26.0394],[92.7534,26.0548]]]}},{"type":"Feature","properties":{"district":"Jorhat","dtCode":"312"},"geometry":{"type":"Polygon","coordinates":[[[94.3971,26.9509],[94.4057,26.9331],[94.418,26.9432],[94.4739,26.9353],[94.4822,26.9053],[94.4742,26.8924],[94.4928,26.8822],[94.4965,26.8668],[94.4858,26.8308],[94.5038,26.8262],[94.526,26.7998],[94.5154,26.7948],[94.5244,26.7888],[94.5121,26.7718],[94.5496,26.7487],[94.5563,26.7564],[94.5726,26.7522],[94.5835,26.7272],[94.6028,26.7116],[94.5935,26.7151],[94.5938,26.6973],[94.5772,26.7009],[94.5669,26.6835],[94.5593,26.6866],[94.5623,26.7052],[94.5207,26.6992],[94.5174,26.6822],[94.5081,26.6855],[94.4925,26.666],[94.4602,26.6618],[94.4529,26.6528],[94.4655,26.6332],[94.4513,26.6363],[94.4027,26.6107],[94.4134,26.5772],[94.4007,26.5343],[94.3761,26.522],[94.3722,26.506],[94.3476,26.5046],[94.3529,26.4901],[94.3253,26.4821],[94.3163,26.4585],[94.2897,26.4799],[94.2824,26.5596],[94.2435,26.5189],[94.2366,26.5063],[94.1831,26.4554],[94.1718,26.4299],[94.1711,26.3628],[94.1611,26.3477],[94.1375,26.3488],[94.1216,26.3851],[94.1153,26.4208],[94.1269,26.4505],[94.1036,26.4629],[94.0973,26.4843],[94.1163,26.5448],[94.1056,26.5497],[94.1146,26.5549],[94.107,26.5698],[94.0973,26.5681],[94.0997,26.5766],[94.078,26.5744],[94.0824,26.5849],[94.0687,26.5942],[94.085,26.6071],[94.0774,26.6146],[94.098,26.6418],[94.0824,26.6616],[94.0568,26.6629],[94.0538,26.6791],[94.0435,26.6811],[94.0488,26.6879],[94.0358,26.7096],[94.0442,26.7132],[94.0461,26.7385],[94.0046,26.7443],[93.9976,26.7663],[93.9724,26.7682],[93.9724,26.7792],[93.9877,26.7866],[93.9734,26.7962],[93.98,26.8108],[94.0083,26.8341],[93.9996,26.8668],[94.1286,26.8924],[94.1927,26.9122],[94.2093,26.9265],[94.2535,26.9083],[94.3047,26.9094],[94.312,26.8784],[94.3213,26.8803],[94.3728,26.918],[94.3971,26.9509]]]}},{"type":"Feature","properties":{"district":"Kamrup","dtCode":"321"},"geometry":{"type":"MultiPolygon","coordinates":[[[[91.5779,26.5291],[91.5862,26.5283],[91.5896,26.5145],[91.6195,26.5129],[91.6161,26.4857],[91.6284,26.4934],[91.6205,26.4796],[91.6281,26.4807],[91.6264,26.4708],[91.6181,26.4686],[91.6291,26.4648],[91.6251,26.4472],[91.6766,26.4483],[91.7099,26.4788],[91.7202,26.4769],[91.7248,26.503],[91.7544,26.4945],[91.7524,26.4816],[91.78,26.4818],[91.7773,26.47],[91.771,26.4686],[91.7664,26.4623],[91.7757,26.4271],[91.8222,26.3705],[91.8219,26.3318],[91.8086,26.3222],[91.8155,26.3134],[91.7933,26.3213],[91.782,26.3054],[91.7903,26.268],[91.7813,26.2441],[91.7471,26.2213],[91.7487,26.2089],[91.7315,26.2109],[91.7119,26.1914],[91.6949,26.204],[91.672,26.2018],[91.6823,26.2158],[91.6647,26.2197],[91.6434,26.1955],[91.6517,26.1784],[91.6574,26.1823],[91.649,26.1655],[91.569,26.1504],[91.5646,26.1449],[91.5643,26.1042],[91.5872,26.0902],[91.5686,26.06],[91.5786,26.0592],[91.5793,26.0682],[91.5866,26.0578],[91.5982,26.0608],[91.6002,26.0757],[91.6294,26.0748],[91.7232,26.035],[91.7225,25.9657],[91.7135,25.944],[91.6706,25.9042],[91.6514,25.9064],[91.6095,25.9374],[91.6118,25.9451],[91.6298,25.9435],[91.6407,25.9638],[91.6261,25.9869],[91.6311,26.0221],[91.5975,26.0182],[91.5799,26.0333],[91.551,25.9767],[91.5181,25.96],[91.5198,25.9399],[91.5028,25.9267],[91.5032,25.9138],[91.5367,25.9314],[91.5048,25.9078],[91.5038,25.8913],[91.4839,25.8932],[91.4746,25.8742],[91.5088,25.8668],[91.4629,25.8572],[91.445,25.8399],[91.4224,25.8544],[91.3357,25.8407],[91.2745,25.7506],[91.2223,25.7225],[91.1904,25.7478],[91.1781,25.7775],[91.1861,25.8184],[91.2037,25.8434],[91.1957,25.8616],[91.1801,25.844],[91.1476,25.8506],[91.1203,25.833],[91.0622,25.8209],[91.0489,25.8294],[91.0718,25.8388],[91.0784,25.8528],[91.0475,25.8492],[91.0116,25.8245],[91.0073,25.8248],[91.0266,25.8803],[91.0256,25.8858],[91.0286,25.886],[91.0475,25.9416],[91.0804,25.9723],[91.0994,26.01],[91.0891,26.032],[91.0651,26.0476],[91.0263,26.0468],[90.9814,26.0627],[90.9478,26.0908],[90.9402,26.093],[90.9954,26.1196],[91.0093,26.1155],[90.998,26.1287],[91.0296,26.1191],[91.0811,26.1617],[91.1007,26.1652],[91.117,26.1548],[91.2127,26.1801],[91.2948,26.1573],[91.3536,26.1672],[91.3905,26.1391],[91.4144,26.1361],[91.4204,26.1746],[91.4111,26.2012],[91.4197,26.2059],[91.4224,26.2323],[91.4128,26.2656],[91.4367,26.2603],[91.4513,26.2697],[91.455,26.3202],[91.5251,26.3367],[91.5194,26.3549],[91.5364,26.3766],[91.5287,26.3928],[91.5643,26.4302],[91.5497,26.4695],[91.562,26.4838],[91.5563,26.5255],[91.5779,26.5291]]],[[[91.5141,25.8679],[91.5264,25.8913],[91.5351,25.8838],[91.5304,25.8715],[91.5141,25.8679]]]]}},{"type":"Feature","properties":{"district":"Kamrup Metropolitan","dtCode":"322"},"geometry":{"type":"Polygon","coordinates":[[[91.7487,26.2092],[91.771,26.1985],[91.88,26.2166],[91.98,26.2743],[91.9721,26.2482],[91.983,26.2383],[92.0103,26.2427],[92.0136,26.2279],[92.0279,26.2326],[92.0555,26.2205],[92.0601,26.1963],[92.0937,26.1886],[92.0801,26.1773],[92.1067,26.1721],[92.1296,26.1806],[92.1499,26.1614],[92.1549,26.1707],[92.1672,26.1639],[92.1635,26.1218],[92.1751,26.0773],[92.1695,26.0779],[92.1326,26.0443],[92.0974,26.0493],[92.0515,26.0328],[91.989,26.0386],[91.9834,26.0259],[91.9312,26.0125],[91.9196,25.9987],[91.9096,26.0089],[91.9146,26.0207],[91.883,26.0262],[91.8674,26.0421],[91.879,26.0982],[91.8252,26.1196],[91.7913,26.0853],[91.7773,26.0894],[91.7311,26.0589],[91.7232,26.035],[91.6294,26.0748],[91.6002,26.0757],[91.5982,26.0608],[91.5866,26.0578],[91.5793,26.0682],[91.5786,26.0592],[91.5686,26.06],[91.5872,26.0902],[91.5643,26.1042],[91.5646,26.1449],[91.5686,26.1501],[91.649,26.1655],[91.6574,26.1823],[91.6517,26.1784],[91.6434,26.1955],[91.6647,26.2197],[91.6823,26.2158],[91.672,26.2018],[91.6949,26.204],[91.7119,26.1914],[91.7315,26.2109],[91.7487,26.2092]]]}},{"type":"Feature","properties":{"district":"Karbi Anglong","dtCode":"314"},"geometry":{"type":"Polygon","coordinates":[[[93.2974,26.5747],[93.326,26.5849],[93.4028,26.5802],[93.3974,26.5714],[93.4087,26.5692],[93.4569,26.5761],[93.4646,26.586],[93.4553,26.572],[93.4636,26.5692],[93.4915,26.5871],[93.4699,26.5915],[93.4779,26.603],[93.4955,26.611],[93.5094,26.5934],[93.5237,26.5937],[93.5533,26.6126],[93.5862,26.6036],[93.5899,26.5706],[93.6108,26.5775],[93.6168,26.5659],[93.6321,26.5959],[93.7012,26.6074],[93.7524,26.5849],[93.7318,26.5379],[93.756,26.5291],[93.7514,26.5184],[93.7946,26.4401],[93.7829,26.4387],[93.7939,26.4285],[93.7819,26.4164],[93.7992,26.4087],[93.775,26.384],[93.7939,26.3758],[93.8268,26.4178],[93.8657,26.3889],[93.884,26.392],[93.881,26.3725],[93.8943,26.3719],[93.886,26.3543],[93.889,26.3461],[93.8816,26.345],[93.8939,26.3156],[93.8853,26.3186],[93.885,26.3106],[93.8737,26.3098],[93.885,26.3027],[93.8687,26.2944],[93.881,26.2735],[93.8707,26.2754],[93.8647,26.2458],[93.8477,26.2414],[93.8647,26.2353],[93.8514,26.2155],[93.8404,26.2177],[93.8381,26.1944],[93.8291,26.1963],[93.8351,26.176],[93.8215,26.1724],[93.8311,26.1369],[93.8182,26.1369],[93.8281,26.1276],[93.8065,26.1026],[93.8142,26.0908],[93.8049,26.0935],[93.8059,26.0713],[93.7966,26.0713],[93.8052,26.0647],[93.7946,26.0614],[93.7972,26.0523],[93.7869,26.0542],[93.7949,26.0416],[93.7799,26.0397],[93.7996,26.0314],[93.7813,26.0078],[93.8009,26.002],[93.7949,25.9927],[93.8042,25.98],[93.7806,25.9814],[93.7766,25.9688],[93.7653,25.969],[93.768,25.9512],[93.7454,25.9427],[93.7514,25.933],[93.6816,25.9045],[93.7019,25.8517],[93.7141,25.8445],[93.6882,25.8459],[93.6683,25.822],[93.646,25.8226],[93.6248,25.8028],[93.6174,25.7761],[93.5776,25.7547],[93.5679,25.7585],[93.5613,25.7379],[93.5423,25.731],[93.541,25.6989],[93.5274,25.6912],[93.5224,25.6978],[93.5128,25.675],[93.4965,25.6547],[93.4573,25.6412],[93.4609,25.6324],[93.4443,25.6398],[93.4263,25.6321],[93.3586,25.5546],[93.3409,25.5582],[93.3217,25.5332],[93.3024,25.5304],[93.2924,25.5445],[93.2705,25.5313],[93.2585,25.5489],[93.2087,25.5436],[93.1764,25.5928],[93.1794,25.6195],[93.1917,25.6318],[93.1781,25.6398],[93.1708,25.6618],[93.1425,25.661],[93.1316,25.6865],[93.1425,25.7184],[93.2266,25.7267],[93.227,25.7654],[93.2469,25.7868],[93.2459,25.8052],[93.2402,25.847],[93.1831,25.9034],[93.1734,25.9525],[93.1585,25.9616],[93.1582,25.9954],[93.1273,26.0311],[93.0934,26.0331],[93.1083,26.0781],[93.0595,26.0798],[93.0558,26.0883],[93.0398,26.0875],[93.0359,26.1086],[92.9548,26.1408],[92.9342,26.1367],[92.9312,26.1512],[92.9561,26.1743],[92.9395,26.2026],[92.8012,26.2018],[92.7936,26.2194],[92.8152,26.2139],[92.8272,26.2252],[92.8152,26.2329],[92.8139,26.2625],[92.8414,26.2837],[92.8441,26.3051],[92.8797,26.2837],[92.8923,26.2884],[92.8986,26.309],[92.9428,26.3304],[92.9395,26.3529],[92.9092,26.3529],[92.9259,26.379],[92.9033,26.3854],[92.89,26.3741],[92.8983,26.3862],[92.882,26.3799],[92.9019,26.4013],[92.9205,26.3917],[92.9382,26.4038],[92.9498,26.3975],[92.9787,26.4205],[93.0192,26.4205],[93.0435,26.4373],[93.0561,26.4282],[93.0495,26.4161],[93.0611,26.4159],[93.0917,26.4335],[93.0688,26.4354],[93.0993,26.4458],[93.0993,26.4392],[93.1176,26.4417],[93.104,26.4489],[93.1282,26.464],[93.1103,26.4711],[93.1362,26.4843],[93.1273,26.4802],[93.1329,26.4895],[93.1253,26.4958],[93.1246,26.4829],[93.0983,26.473],[93.1083,26.467],[93.1023,26.4601],[93.0644,26.4794],[93.0904,26.5],[93.0086,26.481],[93.0129,26.5074],[93.0482,26.5258],[93.0432,26.5351],[93.0598,26.5448],[93.1013,26.5428],[93.115,26.531],[93.1415,26.5555],[93.1508,26.5464],[93.1914,26.567],[93.2097,26.556],[93.1608,26.5239],[93.1994,26.5335],[93.2097,26.5148],[93.2044,26.5013],[93.2173,26.5074],[93.213,26.5296],[93.2333,26.5357],[93.2635,26.5211],[93.2635,26.5088],[93.2841,26.5198],[93.2908,26.5077],[93.2878,26.5206],[93.2638,26.5274],[93.2755,26.5338],[93.2735,26.545],[93.2565,26.5318],[93.2628,26.5379],[93.2472,26.545],[93.2565,26.5511],[93.2353,26.5527],[93.2509,26.5698],[93.2815,26.5689],[93.2974,26.5747]]]}},{"type":"Feature","properties":{"district":"Karimganj","dtCode":"317"},"geometry":{"type":"Polygon","coordinates":[[[92.5151,24.8794],[92.5261,24.861],[92.5563,24.8775],[92.5799,24.8736],[92.5862,24.8613],[92.5826,24.844],[92.5447,24.8077],[92.545,24.7656],[92.5251,24.7516],[92.5221,24.7296],[92.4935,24.6832],[92.5065,24.664],[92.5045,24.5895],[92.5171,24.5741],[92.5055,24.5348],[92.5088,24.4548],[92.4915,24.3691],[92.4636,24.3007],[92.4323,24.2553],[92.2665,24.2509],[92.2173,24.2344],[92.1924,24.2432],[92.2097,24.2482],[92.219,24.2858],[92.2599,24.3586],[92.2469,24.4411],[92.23,24.4518],[92.2303,24.5013],[92.2117,24.5046],[92.2313,24.5469],[92.2542,24.6783],[92.2958,24.7365],[92.2788,24.7456],[92.2888,24.7849],[92.2735,24.7994],[92.2732,24.8275],[92.2489,24.8297],[92.2532,24.8382],[92.2413,24.842],[92.2346,24.8616],[92.2459,24.8676],[92.2469,24.8849],[92.2336,24.8997],[92.2988,24.9157],[92.3396,24.878],[92.3486,24.891],[92.3632,24.8723],[92.3749,24.8736],[92.3858,24.8519],[92.3998,24.8486],[92.4064,24.8591],[92.4383,24.8561],[92.4446,24.872],[92.4759,24.8676],[92.5151,24.8794]]]}},{"type":"Feature","properties":{"district":"Kokrajhar","dtCode":"300"},"geometry":{"type":"Polygon","coordinates":[[[90.336,26.8627],[90.3453,26.8058],[90.3772,26.7176],[90.347,26.6415],[90.3573,26.6313],[90.354,26.6099],[90.3663,26.5821],[90.355,26.57],[90.3712,26.5445],[90.3889,26.542],[90.3822,26.5288],[90.4035,26.5118],[90.3932,26.5033],[90.4078,26.5033],[90.4091,26.4898],[90.3935,26.4939],[90.3862,26.4851],[90.4051,26.4752],[90.3992,26.4412],[90.4025,26.4335],[90.4154,26.4307],[90.4035,26.4068],[90.4171,26.4076],[90.4164,26.3906],[90.4257,26.3961],[90.4281,26.3859],[90.4237,26.3821],[90.4327,26.381],[90.4311,26.3771],[90.4337,26.3766],[90.4264,26.3675],[90.4374,26.3648],[90.3975,26.3595],[90.3958,26.3571],[90.4048,26.3208],[90.3792,26.3092],[90.3812,26.2686],[90.3553,26.2581],[90.3536,26.27],[90.3629,26.2732],[90.352,26.2873],[90.344,26.2708],[90.3207,26.2787],[90.3034,26.2576],[90.3064,26.2458],[90.2872,26.2375],[90.2882,26.2521],[90.2516,26.2645],[90.2586,26.273],[90.2722,26.2672],[90.2812,26.2922],[90.2646,26.3131],[90.2672,26.3307],[90.216,26.3288],[90.2277,26.3494],[90.2147,26.3516],[90.2343,26.3656],[90.227,26.384],[90.2067,26.3749],[90.2071,26.3631],[90.1878,26.3455],[90.1486,26.3527],[90.1167,26.3389],[90.118,26.3169],[90.1077,26.3125],[90.1243,26.3038],[90.126,26.2831],[90.1409,26.2933],[90.1406,26.2763],[90.1177,26.2587],[90.1034,26.2678],[90.0974,26.2623],[90.104,26.2513],[90.1203,26.2504],[90.1363,26.2155],[90.1472,26.2199],[90.1522,26.2089],[90.0638,26.1727],[90.025,26.1268],[89.9821,26.1367],[89.9668,26.127],[89.9382,26.1328],[89.9356,26.1169],[89.9159,26.1166],[89.9086,26.1325],[89.8827,26.1356],[89.8684,26.1499],[89.8754,26.1892],[89.8601,26.1881],[89.8731,26.2021],[89.8601,26.2199],[89.8698,26.2342],[89.8588,26.2383],[89.8741,26.2474],[89.8661,26.2579],[89.8847,26.2985],[89.8797,26.307],[89.9056,26.3263],[89.903,26.337],[89.8691,26.3496],[89.8757,26.3628],[89.8448,26.3727],[89.8432,26.3832],[89.8565,26.3843],[89.8462,26.4049],[89.8378,26.3914],[89.8279,26.3947],[89.8345,26.4145],[89.8565,26.4131],[89.8478,26.4227],[89.8668,26.4585],[89.8498,26.4909],[89.8624,26.5538],[89.8575,26.5761],[89.8741,26.5841],[89.8654,26.592],[89.8694,26.614],[89.8498,26.6231],[89.8664,26.6456],[89.8634,26.6813],[89.8518,26.6973],[89.8651,26.7047],[89.8588,26.7349],[89.9668,26.7234],[90.0492,26.7305],[90.128,26.7503],[90.1948,26.7737],[90.1878,26.8072],[90.2011,26.8355],[90.2307,26.8589],[90.2998,26.8484],[90.336,26.8627]]]}},{"type":"Feature","properties":{"district":"Lakhimpur","dtCode":"307"},"geometry":{"type":"Polygon","coordinates":[[[94.2658,27.5201],[94.2695,27.5157],[94.2778,27.4665],[94.307,27.436],[94.3054,27.3969],[94.2904,27.3832],[94.2648,27.3997],[94.2472,27.392],[94.299,27.3505],[94.3097,27.3189],[94.3336,27.3277],[94.3396,27.3368],[94.3901,27.3505],[94.4061,27.3307],[94.4267,27.3379],[94.4433,27.309],[94.4606,27.3321],[94.4981,27.3299],[94.5131,27.3491],[94.5367,27.3478],[94.5925,27.3777],[94.5932,27.3585],[94.6204,27.3626],[94.6291,27.3387],[94.6065,27.3288],[94.6138,27.3065],[94.5865,27.2672],[94.5746,27.1917],[94.5706,27.1845],[94.5267,27.162],[94.5333,27.1477],[94.5107,27.1422],[94.5071,27.1216],[94.4795,27.1389],[94.4679,27.1136],[94.434,27.1191],[94.4187,27.093],[94.3698,27.0988],[94.3396,27.082],[94.3226,27.0878],[94.312,27.071],[94.2788,27.0949],[94.2548,27.0883],[94.2342,27.0716],[94.2239,27.032],[94.1874,27.0353],[94.189,27.0045],[94.1339,26.9883],[94.1342,26.9691],[94.08,26.96],[94.0598,26.9828],[94.0242,26.9559],[94.0229,26.932],[93.9966,26.9421],[93.9737,26.9226],[93.9378,26.9303],[93.9205,26.9267],[93.9169,26.9083],[93.8919,26.8927],[93.8913,26.8649],[93.8354,26.8512],[93.8238,26.8251],[93.7979,26.8234],[93.77,26.8449],[93.7893,26.8591],[93.7806,26.8858],[93.7394,26.8984],[93.749,26.9138],[93.7441,26.9581],[93.6975,26.9943],[93.7235,27.021],[93.7673,27.0394],[93.7706,27.0622],[93.7783,27.049],[93.7809,27.0655],[93.7836,27.0515],[93.8002,27.0578],[93.7936,27.0724],[93.8032,27.0581],[93.8105,27.0674],[93.8291,27.0669],[93.8378,27.0856],[93.8251,27.1166],[93.7976,27.1364],[93.8052,27.1372],[93.8059,27.1488],[93.9913,27.3285],[94.0598,27.3618],[94.0897,27.4071],[94.1595,27.4618],[94.1565,27.475],[94.2196,27.5049],[94.2658,27.5201]]]}},{"type":"Feature","properties":{"district":"Majuli","dtCode":"760"},"geometry":{"type":"Polygon","coordinates":[[[94.5639,27.1812],[94.5928,27.1458],[94.5443,27.0768],[94.5018,27.04],[94.4755,27.0309],[94.4602,26.9954],[94.3954,26.9551],[94.3971,26.9509],[94.3728,26.918],[94.3213,26.8803],[94.312,26.8784],[94.3047,26.9094],[94.2535,26.9083],[94.2093,26.9265],[94.1927,26.9122],[94.1286,26.8924],[93.9996,26.8668],[93.9983,26.8718],[93.9734,26.8734],[93.9567,26.8921],[93.9674,26.907],[93.9631,26.9243],[93.9737,26.9226],[93.9966,26.9421],[94.0229,26.932],[94.0242,26.9559],[94.0598,26.9828],[94.08,26.96],[94.083,26.9603],[94.1342,26.9691],[94.1339,26.9883],[94.189,27.0045],[94.1874,27.0353],[94.2239,27.032],[94.2342,27.0716],[94.2548,27.0883],[94.2788,27.0949],[94.312,27.071],[94.3226,27.0878],[94.3396,27.082],[94.3698,27.0988],[94.4187,27.093],[94.434,27.1191],[94.4679,27.1136],[94.4795,27.1389],[94.5071,27.1216],[94.5107,27.1422],[94.5333,27.1477],[94.5267,27.162],[94.5639,27.1812]]]}},{"type":"Feature","properties":{"district":"Morigaon","dtCode":"304"},"geometry":{"type":"Polygon","coordinates":[[[92.3406,26.5024],[92.3473,26.5077],[92.3596,26.5055],[92.3689,26.5099],[92.4191,26.5145],[92.4197,26.4788],[92.441,26.4519],[92.442,26.4362],[92.4244,26.4137],[92.434,26.4129],[92.4407,26.3703],[92.4699,26.3744],[92.4859,26.3634],[92.5028,26.3821],[92.5065,26.3719],[92.5513,26.3821],[92.5669,26.3722],[92.5683,26.3378],[92.5527,26.3084],[92.5041,26.273],[92.4194,26.2702],[92.4078,26.2441],[92.4254,26.232],[92.431,26.1908],[92.4171,26.1523],[92.3988,26.1375],[92.4084,26.1257],[92.3629,26.0776],[92.3596,26.0916],[92.33,26.0768],[92.3233,26.0864],[92.2938,26.0823],[92.2735,26.0658],[92.1844,26.0685],[92.1728,26.0757],[92.1751,26.0773],[92.1635,26.1218],[92.1672,26.1639],[92.1549,26.1707],[92.1499,26.1614],[92.1296,26.1806],[92.1067,26.1721],[92.0801,26.1773],[92.0937,26.1886],[92.0601,26.1963],[92.0555,26.2205],[92.0279,26.2326],[92.0136,26.2279],[92.0103,26.2427],[91.983,26.2383],[91.9721,26.2482],[91.98,26.2743],[91.992,26.2697],[92.0153,26.2831],[92.0242,26.271],[92.0402,26.273],[92.0841,26.3389],[92.0997,26.3411],[92.1572,26.4123],[92.1818,26.4244],[92.2187,26.4156],[92.2446,26.4461],[92.2811,26.4543],[92.3406,26.5024]]]}},{"type":"Feature","properties":{"district":"Nagaon","dtCode":"305"},"geometry":{"type":"Polygon","coordinates":[[[92.4191,26.5145],[92.4191,26.517],[92.4433,26.5176],[92.4676,26.4961],[92.5227,26.5079],[92.5759,26.4997],[92.663,26.5222],[92.6886,26.5099],[92.7215,26.5362],[92.7288,26.5178],[92.7484,26.511],[92.7713,26.5558],[92.7946,26.5571],[92.8421,26.5843],[92.9169,26.5948],[92.9511,26.6203],[92.993,26.6137],[93.0139,26.5975],[93.0711,26.5978],[93.0967,26.5769],[93.1452,26.5918],[93.1442,26.5945],[93.22,26.6311],[93.2416,26.6838],[93.3057,26.6984],[93.315,26.6866],[93.3067,26.6676],[93.3177,26.6506],[93.3047,26.6368],[93.2871,26.6374],[93.2964,26.6118],[93.2914,26.5907],[93.3021,26.5805],[93.2974,26.5747],[93.2815,26.5689],[93.2509,26.5698],[93.2353,26.5527],[93.2565,26.5511],[93.2472,26.545],[93.2628,26.5379],[93.2565,26.5318],[93.2735,26.545],[93.2755,26.5338],[93.2638,26.5274],[93.2878,26.5206],[93.2908,26.5077],[93.2841,26.5198],[93.2635,26.5088],[93.2635,26.5211],[93.2333,26.5357],[93.213,26.5296],[93.2173,26.5074],[93.2044,26.5013],[93.2097,26.5148],[93.1994,26.5335],[93.1608,26.5239],[93.2097,26.556],[93.1914,26.567],[93.1508,26.5464],[93.1415,26.5555],[93.115,26.531],[93.1013,26.5428],[93.0598,26.5448],[93.0432,26.5351],[93.0482,26.5258],[93.0129,26.5074],[93.0086,26.481],[93.0904,26.5],[93.0644,26.4794],[93.1023,26.4601],[93.1083,26.467],[93.0983,26.473],[93.1246,26.4829],[93.1253,26.4958],[93.1329,26.4895],[93.1273,26.4802],[93.1362,26.4843],[93.1103,26.4711],[93.1282,26.464],[93.104,26.4489],[93.1176,26.4417],[93.0993,26.4392],[93.0993,26.4458],[93.0688,26.4354],[93.0917,26.4335],[93.0611,26.4159],[93.0495,26.4161],[93.0561,26.4282],[93.0435,26.4373],[93.0192,26.4205],[92.9787,26.4205],[92.9498,26.3975],[92.9382,26.4038],[92.9205,26.3917],[92.9019,26.4013],[92.882,26.3799],[92.8983,26.3862],[92.89,26.3741],[92.9033,26.3854],[92.9259,26.379],[92.9092,26.3529],[92.9395,26.3529],[92.9428,26.3304],[92.8986,26.309],[92.8923,26.2884],[92.8797,26.2837],[92.8441,26.3051],[92.8414,26.2837],[92.8139,26.2625],[92.8152,26.2329],[92.8272,26.2252],[92.8152,26.2139],[92.7936,26.2194],[92.8019,26.2018],[92.7763,26.1996],[92.7783,26.187],[92.756,26.1793],[92.7617,26.157],[92.7514,26.1419],[92.7225,26.151],[92.7059,26.1422],[92.7039,26.1251],[92.7321,26.1152],[92.7231,26.1009],[92.7411,26.1009],[92.7298,26.0894],[92.7391,26.0858],[92.7324,26.0713],[92.7511,26.0754],[92.758,26.0616],[92.7534,26.0548],[92.7431,26.0614],[92.7142,26.0537],[92.7132,26.018],[92.667,26.0284],[92.6543,26.0196],[92.6557,26.0001],[92.5962,25.9781],[92.5889,25.9641],[92.552,25.966],[92.546,25.9715],[92.5663,26.0108],[92.5939,26.0215],[92.5796,26.0333],[92.5959,26.0806],[92.5746,26.0949],[92.5706,26.1166],[92.5477,26.1106],[92.5364,26.0965],[92.5198,26.1023],[92.5291,26.151],[92.5221,26.1551],[92.5088,26.1413],[92.4865,26.1493],[92.4789,26.129],[92.454,26.1155],[92.4413,26.0954],[92.4134,26.1155],[92.3955,26.1136],[92.4084,26.1257],[92.3988,26.1375],[92.4171,26.1523],[92.431,26.1908],[92.4254,26.232],[92.4078,26.2441],[92.4194,26.2702],[92.5041,26.273],[92.5527,26.3084],[92.5683,26.3378],[92.5669,26.3722],[92.5513,26.3821],[92.5065,26.3719],[92.5028,26.3821],[92.4859,26.3634],[92.4699,26.3744],[92.4407,26.3703],[92.434,26.4129],[92.4244,26.4137],[92.442,26.4362],[92.441,26.4519],[92.4197,26.4788],[92.4191,26.5145]]]}},{"type":"Feature","properties":{"district":"Nalbari","dtCode":"323"},"geometry":{"type":"Polygon","coordinates":[[[91.2496,26.5233],[91.2639,26.5217],[91.2662,26.5349],[91.2968,26.5461],[91.3114,26.517],[91.2895,26.5154],[91.2841,26.5027],[91.3024,26.5],[91.2968,26.4849],[91.3413,26.4997],[91.3553,26.5107],[91.3526,26.5239],[91.46,26.5426],[91.429,26.5494],[91.4344,26.5634],[91.4676,26.5626],[91.4759,26.5709],[91.4912,26.5612],[91.4945,26.5338],[91.5065,26.5324],[91.5284,26.5588],[91.5776,26.572],[91.5849,26.5558],[91.5739,26.5555],[91.5779,26.5291],[91.5563,26.5255],[91.562,26.4838],[91.5497,26.4695],[91.5643,26.4302],[91.5287,26.3928],[91.5364,26.3766],[91.5194,26.3549],[91.5251,26.3367],[91.455,26.3202],[91.4513,26.2697],[91.4367,26.2603],[91.4128,26.2656],[91.4224,26.2323],[91.4197,26.2059],[91.4111,26.2012],[91.4204,26.1746],[91.4144,26.1361],[91.3905,26.1391],[91.3536,26.1672],[91.2948,26.1573],[91.2233,26.179],[91.2373,26.1804],[91.2483,26.2012],[91.2167,26.2194],[91.2157,26.2389],[91.2409,26.2612],[91.216,26.2672],[91.227,26.2826],[91.2612,26.2895],[91.2503,26.3018],[91.2616,26.3043],[91.2559,26.3147],[91.2699,26.329],[91.2672,26.3406],[91.2772,26.3409],[91.2709,26.3645],[91.2825,26.3752],[91.2649,26.3708],[91.2652,26.3609],[91.2473,26.3716],[91.2443,26.381],[91.237,26.378],[91.2419,26.3881],[91.2336,26.3997],[91.2419,26.4043],[91.2313,26.4384],[91.2659,26.4912],[91.2479,26.5107],[91.2496,26.5233]]]}},{"type":"Feature","properties":{"district":"Sivasagar","dtCode":"311"},"geometry":{"type":"Polygon","coordinates":[[[94.5928,27.1458],[94.642,27.2466],[94.6782,27.2433],[94.6949,27.2719],[94.7208,27.2455],[94.7178,27.2631],[94.7374,27.2747],[94.75,27.2681],[94.7414,27.2472],[94.77,27.2378],[94.766,27.2202],[94.7809,27.1996],[94.7683,27.1848],[94.7786,27.1711],[94.7533,27.1405],[94.7607,27.1298],[94.8175,27.1144],[94.8085,27.0966],[94.8368,27.0919],[94.8248,27.057],[94.8298,27.0163],[94.8059,26.9976],[94.8095,26.9916],[94.7872,26.9968],[94.7337,26.9325],[94.7567,26.9226],[94.8481,26.9292],[94.9099,26.9696],[94.9006,26.9836],[94.9265,26.9932],[94.9391,26.9872],[94.9418,26.9594],[94.8893,26.9289],[94.866,26.9089],[94.8501,26.8748],[94.8175,26.8479],[94.8145,26.8196],[94.7949,26.8141],[94.8025,26.8014],[94.77,26.7891],[94.7583,26.766],[94.7401,26.7761],[94.7364,26.7495],[94.7371,26.7624],[94.6922,26.7319],[94.6201,26.7124],[94.6094,26.7371],[94.5968,26.7347],[94.5948,26.73],[94.5858,26.725],[94.5726,26.7522],[94.5563,26.7564],[94.5496,26.7487],[94.5121,26.7718],[94.5244,26.7888],[94.5154,26.7948],[94.526,26.7998],[94.5038,26.8262],[94.4858,26.8308],[94.4965,26.8668],[94.4928,26.8822],[94.4742,26.8924],[94.4822,26.9053],[94.4739,26.9353],[94.418,26.9432],[94.4057,26.9331],[94.3954,26.9548],[94.4602,26.9954],[94.4755,27.0309],[94.5018,27.04],[94.5443,27.0768],[94.5928,27.1458]]]}},{"type":"Feature","properties":{"district":"Sonitpur","dtCode":"306"},"geometry":{"type":"Polygon","coordinates":[[[93.0618,26.9221],[93.0611,26.8723],[93.0432,26.8509],[93.0641,26.8223],[93.0578,26.8031],[93.0744,26.7682],[93.0681,26.7467],[93.0874,26.7124],[93.084,26.7017],[93.1037,26.6954],[93.1233,26.6596],[93.1452,26.5918],[93.0967,26.5769],[93.0711,26.5978],[93.0139,26.5975],[92.993,26.6137],[92.9511,26.6203],[92.9169,26.5948],[92.8421,26.5843],[92.7946,26.5571],[92.7713,26.5558],[92.7484,26.511],[92.7288,26.5178],[92.7215,26.5362],[92.6886,26.5099],[92.663,26.5222],[92.5759,26.4997],[92.5227,26.5079],[92.4676,26.4961],[92.4433,26.5176],[92.3689,26.5099],[92.3596,26.5055],[92.3473,26.5077],[92.3406,26.5024],[92.3317,26.5151],[92.3543,26.5349],[92.3805,26.5277],[92.3609,26.5588],[92.3662,26.5662],[92.3523,26.57],[92.3622,26.5852],[92.3606,26.5945],[92.3536,26.6033],[92.3759,26.6137],[92.3759,26.6294],[92.3955,26.6269],[92.3991,26.6385],[92.3951,26.6423],[92.3632,26.6431],[92.3642,26.6981],[92.3446,26.6929],[92.3529,26.6868],[92.3489,26.664],[92.3313,26.6627],[92.3323,26.6945],[92.3463,26.705],[92.332,26.722],[92.342,26.7292],[92.332,26.725],[92.3373,26.733],[92.3237,26.7391],[92.3343,26.7421],[92.328,26.7569],[92.3363,26.7657],[92.3287,26.7718],[92.3403,26.7712],[92.328,26.8127],[92.3576,26.9259],[92.3981,26.9248],[92.4121,26.943],[92.4257,26.941],[92.4473,26.9589],[92.563,26.9578],[92.6008,26.9669],[92.6447,26.9867],[92.6723,27.0317],[92.7228,27.0183],[92.7783,27.0229],[92.8866,26.9998],[92.9182,26.9825],[92.9172,26.963],[93.0216,26.9136],[93.0618,26.9221]]]}},{"type":"Feature","properties":{"district":"South Salmara Mankachar","dtCode":"758"},"geometry":{"type":"Polygon","coordinates":[[[89.8432,25.883],[89.8764,25.8792],[89.898,25.9003],[89.9302,25.9064],[89.9372,25.9248],[89.9488,25.9251],[89.9452,25.9501],[89.9721,25.9754],[90.0193,26.0023],[90.0562,26.0006],[90.0824,26.0405],[90.1316,26.0542],[90.1416,26.0531],[90.1785,26.0482],[90.1708,26.0441],[90.1974,26.0259],[90.1835,26.0089],[90.1875,26.0015],[90.1423,25.9825],[90.129,25.9666],[90.1197,25.9696],[90.1167,25.9594],[90.1223,25.9589],[90.0921,25.9383],[90.0861,25.9196],[90.0605,25.9135],[90.0426,25.8877],[90.0253,25.8957],[90.008,25.8816],[90.0226,25.8657],[90.0037,25.8393],[89.9711,25.8264],[89.9638,25.8333],[89.9618,25.8204],[89.9542,25.8215],[89.9575,25.8292],[89.9482,25.8256],[89.9591,25.78],[89.9352,25.7547],[89.9372,25.7453],[89.9246,25.7387],[89.8947,25.7451],[89.899,25.7264],[89.9442,25.6794],[89.9492,25.6571],[89.9831,25.6269],[90.004,25.6269],[90.02,25.6074],[90.003,25.5854],[89.9827,25.5909],[89.9721,25.5736],[89.8771,25.5491],[89.8678,25.5244],[89.8834,25.5192],[89.886,25.5079],[89.8727,25.5076],[89.8717,25.4774],[89.8511,25.4664],[89.8601,25.5175],[89.8515,25.539],[89.8661,25.5461],[89.8824,25.6173],[89.8707,25.6626],[89.8465,25.6959],[89.8495,25.7151],[89.8349,25.7159],[89.8269,25.733],[89.8412,25.7607],[89.8275,25.808],[89.8169,25.8149],[89.8352,25.8404],[89.8332,25.8712],[89.8432,25.883]]]}},{"type":"Feature","properties":{"district":"Tinsukia","dtCode":"309"},"geometry":{"type":"Polygon","coordinates":[[[95.4841,27.2414],[95.4669,27.2626],[95.4509,27.2312],[95.4406,27.2604],[95.4605,27.2705],[95.4459,27.2944],[95.4808,27.3208],[95.4675,27.3167],[95.4482,27.3354],[95.4659,27.3425],[95.4738,27.367],[95.4539,27.375],[95.4393,27.3642],[95.4114,27.3871],[95.3901,27.3909],[95.3628,27.3827],[95.3485,27.3939],[95.3093,27.389],[95.2954,27.4151],[95.2482,27.4046],[95.2518,27.434],[95.2199,27.4437],[95.2289,27.4986],[95.2668,27.5093],[95.2655,27.544],[95.2827,27.5473],[95.2731,27.5742],[95.2847,27.5676],[95.3004,27.5846],[95.3183,27.5874],[95.2791,27.6729],[95.2698,27.6814],[95.2738,27.6891],[95.3466,27.7012],[95.3918,27.7267],[95.405,27.7696],[95.4669,27.818],[95.4931,27.8581],[95.5154,27.8594],[95.5147,27.8795],[95.5636,27.9194],[95.5709,27.9378],[95.5862,27.9369],[95.6068,27.9551],[95.8191,27.9713],[95.9717,27.9625],[95.9491,27.938],[95.9527,27.9202],[95.9298,27.9029],[95.9378,27.8982],[95.9155,27.8894],[95.9251,27.8817],[95.9155,27.8839],[95.8703,27.8328],[95.8377,27.8243],[95.8381,27.8103],[95.8128,27.7984],[95.7759,27.7536],[95.7792,27.7339],[95.755,27.7248],[95.7653,27.7146],[95.7676,27.6874],[95.7902,27.6803],[95.7749,27.6745],[95.7703,27.658],[95.7955,27.6418],[95.7799,27.6209],[95.7912,27.5998],[95.8158,27.5987],[95.8141,27.5745],[95.8607,27.5431],[95.8743,27.5442],[95.8756,27.5126],[95.8869,27.4973],[95.8743,27.4934],[95.8706,27.4667],[95.8534,27.4571],[95.8444,27.4217],[95.86,27.4082],[95.857,27.42],[95.8833,27.4354],[95.8856,27.3983],[95.9079,27.4343],[95.9411,27.4373],[95.9547,27.4198],[95.9693,27.428],[95.97,27.4151],[95.9833,27.4121],[96.0152,27.3684],[95.9889,27.3565],[95.9654,27.328],[95.9753,27.3247],[95.955,27.3178],[95.96,27.3109],[95.8972,27.2823],[95.9042,27.2741],[95.8922,27.2554],[95.8563,27.2711],[95.8593,27.2873],[95.8052,27.273],[95.8008,27.2843],[95.7796,27.27],[95.742,27.2667],[95.7201,27.2496],[95.6815,27.2518],[95.6337,27.2304],[95.5991,27.223],[95.535,27.2645],[95.5087,27.262],[95.5037,27.2485],[95.4841,27.2414]]]}},{"type":"Feature","properties":{"district":"Udalguri","dtCode":"326"},"geometry":{"type":"Polygon","coordinates":[[[92.3602,26.9256],[92.3576,26.9259],[92.328,26.8127],[92.3403,26.7712],[92.3287,26.7718],[92.3363,26.7657],[92.328,26.7569],[92.3343,26.7421],[92.3237,26.7391],[92.3373,26.733],[92.332,26.725],[92.342,26.7292],[92.332,26.722],[92.3463,26.705],[92.3323,26.6945],[92.3313,26.6627],[92.3489,26.664],[92.3529,26.6868],[92.3446,26.6929],[92.3642,26.6981],[92.3632,26.6431],[92.3951,26.6423],[92.3991,26.6385],[92.3955,26.6269],[92.3759,26.6294],[92.3759,26.6137],[92.3536,26.6033],[92.3606,26.5945],[92.3609,26.583],[92.3273,26.5874],[92.3253,26.5967],[92.3443,26.5978],[92.3317,26.6063],[92.335,26.622],[92.312,26.6071],[92.3144,26.6242],[92.2941,26.622],[92.2898,26.6508],[92.2758,26.6574],[92.2732,26.6162],[92.2423,26.6033],[92.2526,26.5739],[92.2649,26.5706],[92.2306,26.5489],[92.227,26.594],[92.2346,26.597],[92.2203,26.6283],[92.1937,26.6349],[92.205,26.6407],[92.202,26.6514],[92.1844,26.6448],[92.1768,26.6514],[92.1808,26.6687],[92.1186,26.6525],[92.1216,26.6437],[92.0728,26.647],[92.0704,26.6245],[92.0372,26.6203],[92.0385,26.6091],[92.0256,26.6093],[92.0332,26.5926],[92.0096,26.5898],[92.006,26.5596],[92.0286,26.5459],[92.0568,26.547],[92.0625,26.5874],[92.0794,26.5893],[92.0867,26.5758],[92.1007,26.5794],[92.1087,26.5703],[92.107,26.5522],[92.0684,26.545],[92.0684,26.5101],[92.0568,26.509],[92.0505,26.4755],[92.0385,26.4857],[92.0409,26.5099],[92.0252,26.5088],[92.0346,26.5244],[92.0193,26.522],[92.0282,26.5423],[92.0036,26.5434],[92.0133,26.5365],[92.005,26.5346],[91.9904,26.5549],[91.9701,26.556],[91.9588,26.5516],[91.9651,26.5398],[91.9279,26.5373],[91.9219,26.5676],[91.8966,26.5695],[91.8843,26.5384],[91.87,26.5318],[91.8541,26.5384],[91.8498,26.5731],[91.8378,26.5744],[91.8375,26.5808],[91.8338,26.5832],[91.8209,26.572],[91.8315,26.5711],[91.8298,26.5582],[91.8129,26.5593],[91.8099,26.5439],[91.8275,26.545],[91.8332,26.5154],[91.8172,26.5055],[91.778,26.5126],[91.7853,26.5189],[91.7757,26.5228],[91.7843,26.5274],[91.7757,26.5288],[91.7853,26.5357],[91.7803,26.5494],[91.7667,26.5733],[91.7497,26.581],[91.7627,26.5937],[91.7504,26.5868],[91.7434,26.5931],[91.7517,26.6049],[91.7378,26.6049],[91.7464,26.6269],[91.7331,26.6302],[91.7504,26.6363],[91.7391,26.6382],[91.7487,26.6467],[91.7345,26.6605],[91.7454,26.6879],[91.7042,26.8127],[91.7208,26.8119],[91.8242,26.8638],[91.8594,26.9133],[91.893,26.9188],[91.9644,26.8822],[91.9837,26.8578],[92.0562,26.8468],[92.1023,26.8674],[92.1136,26.8929],[92.1947,26.8902],[92.2552,26.9097],[92.2762,26.902],[92.3027,26.9072],[92.3027,26.9226],[92.3649,26.932],[92.3602,26.9256]]]}},{"type":"Feature","properties":{"district":"West Karbi Anglong","dtCode":"759"},"geometry":{"type":"Polygon","coordinates":[[[92.3955,26.1136],[92.4134,26.1155],[92.4413,26.0954],[92.454,26.1155],[92.4789,26.129],[92.4865,26.1493],[92.5088,26.1413],[92.5221,26.1551],[92.5291,26.151],[92.5198,26.1023],[92.5364,26.0965],[92.5477,26.1106],[92.5706,26.1166],[92.5746,26.0949],[92.5959,26.0806],[92.5796,26.0333],[92.5939,26.0215],[92.5663,26.0108],[92.546,25.9715],[92.552,25.966],[92.5889,25.9641],[92.5962,25.9781],[92.6557,26.0001],[92.6543,26.0196],[92.667,26.0284],[92.7132,26.018],[92.7142,26.0537],[92.7431,26.0614],[92.755,26.054],[92.7464,26.0394],[92.7653,26.0287],[92.759,26.0141],[92.7826,26.01],[92.757,26.0026],[92.779,25.996],[92.7594,25.9913],[92.7707,25.9891],[92.762,25.9841],[92.7697,25.9756],[92.7627,25.9605],[92.7756,25.9484],[92.7943,25.9646],[92.8069,25.9567],[92.7943,25.9564],[92.7899,25.9383],[92.8012,25.9187],[92.8179,25.924],[92.8341,25.9135],[92.8541,25.9248],[92.8478,25.9039],[92.868,25.8685],[92.9824,25.8753],[93.0286,25.8127],[93.0737,25.7791],[93.0598,25.7731],[93.0186,25.8011],[93.0033,25.7866],[93.0063,25.8264],[92.981,25.8085],[92.9834,25.783],[92.9807,25.7904],[92.9674,25.7819],[92.9564,25.8039],[92.9634,25.8179],[92.9441,25.803],[92.9285,25.8069],[92.9229,25.7723],[92.8208,25.7415],[92.8139,25.7022],[92.7747,25.6742],[92.7883,25.6582],[92.7584,25.6285],[92.7673,25.6178],[92.7544,25.6151],[92.7404,25.5958],[92.7338,25.5934],[92.6942,25.598],[92.6826,25.5766],[92.6607,25.5717],[92.6514,25.5892],[92.6357,25.5791],[92.6221,25.5653],[92.5846,25.5505],[92.5566,25.5711],[92.554,25.6148],[92.5055,25.6165],[92.4702,25.6753],[92.4407,25.6918],[92.4443,25.7198],[92.431,25.7321],[92.4114,25.7302],[92.4064,25.7448],[92.3818,25.742],[92.3842,25.7547],[92.3333,25.7242],[92.3114,25.728],[92.2642,25.7091],[92.2343,25.7077],[92.2246,25.7159],[92.1701,25.6673],[92.1522,25.6714],[92.1559,25.6769],[92.1552,25.695],[92.1442,25.7173],[92.1618,25.7426],[92.1479,25.7731],[92.1509,25.8168],[92.1775,25.8517],[92.1771,25.8729],[92.2256,25.9094],[92.202,25.9064],[92.1944,25.9185],[92.1755,25.9075],[92.1545,25.9113],[92.1608,25.9284],[92.1522,25.9443],[92.1642,25.9704],[92.2635,26.0333],[92.2645,26.0583],[92.2938,26.0823],[92.3233,26.0864],[92.33,26.0768],[92.3596,26.0916],[92.3629,26.0776],[92.3955,26.1136]]]}}]}